*******************************************************************************
 Revised: January 26, 2022             Saturn                               699
 
 PHYSICAL DATA:
  Mass x10^26 (kg)      = 5.6834          Density (g/cm^3)       =  0.687+-.001
  Equat. radius (1 bar) = 60268+-4 km     Polar radius (km)      = 54364+-10
  Vol. Mean Radius (km) = 58232+-6        Flattening             =  0.09796
  Geometric Albedo      = 0.47            Rocky core mass (Mc/M) =  0.1027
  Sid. rot. period (III)= 10h 39m 22.4s   Sid. rot. rate (rad/s) =  0.000163785 
  Mean solar day, hrs   =~10.656         
  GM (km^3/s^2)         = 37931206.234    GM 1-sigma (km^3/s^2)  = +- 98
  Equ. grav, ge (m/s^2) = 10.44           Pol. grav, gp (m/s^2)  = 12.14+-0.01
  Vis. magnitude V(1,0) = -8.88          
  Vis. mag. (opposition)= +0.67           Obliquity to orbit     = 26.73 deg
  Sidereal orbit period = 29.447498 yr    Sidereal orbit period  = 10755.698 d
  Mean daily motion     = 0.0334979 deg/d Mean orbit velocity    =  9.68 km/s
  Atmos. temp. (1 bar)  = 134+-4 K        Escape speed, km/s    =  35.5          
  Aroche(ice)/Rp        =  2.71           Hill's sphere rad. Rp  = 1100
                                 Perihelion  Aphelion    Mean
  Solar Constant (W/m^2)         16.8        13.6        15.1
  Maximum Planetary IR (W/m^2)    4.7         4.5         4.6
  Minimum Planetary IR (W/m^2)    4.7         4.5         4.6
*******************************************************************************


*******************************************************************************
Ephemeris / WWW_USER Fri Jan 10 11:37:32 2025 Pasadena, USA      / Horizons
*******************************************************************************
Target body name: Saturn (699)                    {source: sat441l}
Center body name: Sun (10)                        {source: DE441}
Center-site name: BODY CENTER
*******************************************************************************
Start time      : A.D. 2025-Jan-03 00:00:00.0000 TDB
Stop  time      : A.D. 2075-Feb-02 00:00:00.0000 TDB
Step-size       : 1440 minutes
*******************************************************************************
Center geodetic : 0.0, 0.0, 0.0                   {E-lon(deg),Lat(deg),Alt(km)}
Center cylindric: 0.0, 0.0, 0.0                   {E-lon(deg),Dxy(km),Dz(km)}
Center radii    : 695700.0, 695700.0, 695700.0 km {Equator_a, b, pole_c}
Output units    : AU-D
Calendar mode   : Gregorian
Output type     : GEOMETRIC cartesian states
Output format   : 1 (position only)
Reference frame : Ecliptic of J2000.0
*******************************************************************************
JDTDB
   X     Y     Z
*******************************************************************************
$$SOE
2475677.500000000 = A.D. 2066-Jan-27 00:00:00.0000 TDB 
 X =-7.297788594330000E+00 Y = 5.590008026775494E+00 Z = 1.942881805522663E-01
2475678.500000000 = A.D. 2066-Jan-28 00:00:00.0000 TDB 
 X =-7.301475788587520E+00 Y = 5.585562127241048E+00 Z = 1.945123832933983E-01
2475679.500000000 = A.D. 2066-Jan-29 00:00:00.0000 TDB 
 X =-7.305159984416600E+00 Y = 5.581113873823922E+00 Z = 1.947366103512324E-01
2475680.500000000 = A.D. 2066-Jan-30 00:00:00.0000 TDB 
 X =-7.308841066431985E+00 Y = 5.576663396704598E+00 Z = 1.949607838676644E-01
2475681.500000000 = A.D. 2066-Jan-31 00:00:00.0000 TDB 
 X =-7.312519043482985E+00 Y = 5.572210835757495E+00 Z = 1.951848333512967E-01
2475682.500000000 = A.D. 2066-Feb-01 00:00:00.0000 TDB 
 X =-7.316193984626464E+00 Y = 5.567756285067529E+00 Z = 1.954087184670919E-01
2475683.500000000 = A.D. 2066-Feb-02 00:00:00.0000 TDB 
 X =-7.319865943850036E+00 Y = 5.563299818949279E+00 Z = 1.956324081065381E-01
2475684.500000000 = A.D. 2066-Feb-03 00:00:00.0000 TDB 
 X =-7.323535047725858E+00 Y = 5.558841488485995E+00 Z = 1.958558895438357E-01
2475685.500000000 = A.D. 2066-Feb-04 00:00:00.0000 TDB 
 X =-7.327201364296147E+00 Y = 5.554381302804381E+00 Z = 1.960791662615839E-01
2475686.500000000 = A.D. 2066-Feb-05 00:00:00.0000 TDB 
 X =-7.330865040705916E+00 Y = 5.549919270160369E+00 Z = 1.963022488850905E-01
2475687.500000000 = A.D. 2066-Feb-06 00:00:00.0000 TDB 
 X =-7.334526178867965E+00 Y = 5.545455291988265E+00 Z = 1.965252001025286E-01
2475688.500000000 = A.D. 2066-Feb-07 00:00:00.0000 TDB 
 X =-7.338184789278437E+00 Y = 5.540989258122035E+00 Z = 1.967480787257791E-01
2475689.500000000 = A.D. 2066-Feb-08 00:00:00.0000 TDB 
 X =-7.341840853433623E+00 Y = 5.536521118024353E+00 Z = 1.969709097490402E-01
2475690.500000000 = A.D. 2066-Feb-09 00:00:00.0000 TDB 
 X =-7.345494372000099E+00 Y = 5.532050773967722E+00 Z = 1.971937438707276E-01
2475691.500000000 = A.D. 2066-Feb-10 00:00:00.0000 TDB 
 X =-7.349145274859494E+00 Y = 5.527578169312304E+00 Z = 1.974166042453543E-01
2475692.500000000 = A.D. 2066-Feb-11 00:00:00.0000 TDB 
 X =-7.352793506215383E+00 Y = 5.523103221180238E+00 Z = 1.976395287766708E-01
2475693.500000000 = A.D. 2066-Feb-12 00:00:00.0000 TDB 
 X =-7.356438908077926E+00 Y = 5.518625888947788E+00 Z = 1.978625239700883E-01
2475694.500000000 = A.D. 2066-Feb-13 00:00:00.0000 TDB 
 X =-7.360081343440791E+00 Y = 5.514146221479460E+00 Z = 1.980855512047497E-01
2475695.500000000 = A.D. 2066-Feb-14 00:00:00.0000 TDB 
 X =-7.363720764943939E+00 Y = 5.509664303432218E+00 Z = 1.983085627481564E-01
2475696.500000000 = A.D. 2066-Feb-15 00:00:00.0000 TDB 
 X =-7.367357096825257E+00 Y = 5.505180181063470E+00 Z = 1.985315287890646E-01
2475697.500000000 = A.D. 2066-Feb-16 00:00:00.0000 TDB 
 X =-7.370990315064896E+00 Y = 5.500693986894020E+00 Z = 1.987543797971523E-01
2475698.500000000 = A.D. 2066-Feb-17 00:00:00.0000 TDB 
 X =-7.374620443213868E+00 Y = 5.496205812553922E+00 Z = 1.989770723760222E-01
2475699.500000000 = A.D. 2066-Feb-18 00:00:00.0000 TDB 
 X =-7.378247557813935E+00 Y = 5.491715783110950E+00 Z = 1.991995504148763E-01
2475700.500000000 = A.D. 2066-Feb-19 00:00:00.0000 TDB 
 X =-7.381871806325238E+00 Y = 5.487223955909869E+00 Z = 1.994218004098559E-01
2475701.500000000 = A.D. 2066-Feb-20 00:00:00.0000 TDB 
 X =-7.385493326695288E+00 Y = 5.482730289171434E+00 Z = 1.996438591569961E-01
2475702.500000000 = A.D. 2066-Feb-21 00:00:00.0000 TDB 
 X =-7.389112153114554E+00 Y = 5.478234750864983E+00 Z = 1.998657481826255E-01
2475703.500000000 = A.D. 2066-Feb-22 00:00:00.0000 TDB 
 X =-7.392728393208682E+00 Y = 5.473737309405736E+00 Z = 2.000874946584501E-01
2475704.500000000 = A.D. 2066-Feb-23 00:00:00.0000 TDB 
 X =-7.396342081197893E+00 Y = 5.469237875285446E+00 Z = 2.003091494362158E-01
2475705.500000000 = A.D. 2066-Feb-24 00:00:00.0000 TDB 
 X =-7.399953249603874E+00 Y = 5.464736359417850E+00 Z = 2.005307622185851E-01
2475706.500000000 = A.D. 2066-Feb-25 00:00:00.0000 TDB 
 X =-7.403561863040041E+00 Y = 5.460232650230427E+00 Z = 2.007523885119830E-01
2475707.500000000 = A.D. 2066-Feb-26 00:00:00.0000 TDB 
 X =-7.407167814837283E+00 Y = 5.455726660372082E+00 Z = 2.009740632669070E-01
2475708.500000000 = A.D. 2066-Feb-27 00:00:00.0000 TDB 
 X =-7.410771015228702E+00 Y = 5.451218399037346E+00 Z = 2.011957731577585E-01
2475709.500000000 = A.D. 2066-Feb-28 00:00:00.0000 TDB 
 X =-7.414371407798332E+00 Y = 5.446707811112384E+00 Z = 2.014175416783492E-01
2475710.500000000 = A.D. 2066-Mar-01 00:00:00.0000 TDB 
 X =-7.417968845833038E+00 Y = 5.442194907100638E+00 Z = 2.016393502051002E-01
2475711.500000000 = A.D. 2066-Mar-02 00:00:00.0000 TDB 
 X =-7.421563223704458E+00 Y = 5.437679742406974E+00 Z = 2.018611605254380E-01
2475712.500000000 = A.D. 2066-Mar-03 00:00:00.0000 TDB 
 X =-7.425154463680145E+00 Y = 5.433162424797350E+00 Z = 2.020829103139598E-01
2475713.500000000 = A.D. 2066-Mar-04 00:00:00.0000 TDB 
 X =-7.428742551776805E+00 Y = 5.428643089405529E+00 Z = 2.023045294205021E-01
2475714.500000000 = A.D. 2066-Mar-05 00:00:00.0000 TDB 
 X =-7.432327588324654E+00 Y = 5.424121849815201E+00 Z = 2.025259705129124E-01
2475715.500000000 = A.D. 2066-Mar-06 00:00:00.0000 TDB 
 X =-7.435909617827047E+00 Y = 5.419598733737583E+00 Z = 2.027472259255635E-01
2475716.500000000 = A.D. 2066-Mar-07 00:00:00.0000 TDB 
 X =-7.439488731920573E+00 Y = 5.415073830994656E+00 Z = 2.029682591953575E-01
2475717.500000000 = A.D. 2066-Mar-08 00:00:00.0000 TDB 
 X =-7.443065065747690E+00 Y = 5.410547150656975E+00 Z = 2.031890802824418E-01
2475718.500000000 = A.D. 2066-Mar-09 00:00:00.0000 TDB 
 X =-7.446638737804915E+00 Y = 5.406018653663438E+00 Z = 2.034097219726058E-01
2475719.500000000 = A.D. 2066-Mar-10 00:00:00.0000 TDB 
 X =-7.450209820395712E+00 Y = 5.401488268518132E+00 Z = 2.036302298679012E-01
2475720.500000000 = A.D. 2066-Mar-11 00:00:00.0000 TDB 
 X =-7.453778355677510E+00 Y = 5.396955879081730E+00 Z = 2.038506689305037E-01
2475721.500000000 = A.D. 2066-Mar-12 00:00:00.0000 TDB 
 X =-7.457344286321831E+00 Y = 5.392421425209827E+00 Z = 2.040710653796219E-01
2475722.500000000 = A.D. 2066-Mar-13 00:00:00.0000 TDB 
 X =-7.460907640902470E+00 Y = 5.387884848409823E+00 Z = 2.042914521130068E-01
2475723.500000000 = A.D. 2066-Mar-14 00:00:00.0000 TDB 
 X =-7.464468357287369E+00 Y = 5.383346038507596E+00 Z = 2.045118812696166E-01
2475724.500000000 = A.D. 2066-Mar-15 00:00:00.0000 TDB 
 X =-7.468026320983410E+00 Y = 5.378804929903882E+00 Z = 2.047323759692821E-01
2475725.500000000 = A.D. 2066-Mar-16 00:00:00.0000 TDB 
 X =-7.471581409821037E+00 Y = 5.374261524547133E+00 Z = 2.049529238747416E-01
2475726.500000000 = A.D. 2066-Mar-17 00:00:00.0000 TDB 
 X =-7.475133499513842E+00 Y = 5.369715836972247E+00 Z = 2.051735056141226E-01
2475727.500000000 = A.D. 2066-Mar-18 00:00:00.0000 TDB 
 X =-7.478682513467052E+00 Y = 5.365167972076674E+00 Z = 2.053940602128487E-01
2475728.500000000 = A.D. 2066-Mar-19 00:00:00.0000 TDB 
 X =-7.482228422557506E+00 Y = 5.360617973916302E+00 Z = 2.056145635529081E-01
2475729.500000000 = A.D. 2066-Mar-20 00:00:00.0000 TDB 
 X =-7.485771161261265E+00 Y = 5.356065955702734E+00 Z = 2.058349522297565E-01
